{
  "type": "FeatureCollection",
  "features": [
    {
      "type": "Feature",
      "properties": {
        "norad_id": 37846,
        "name": "GSAT0101 (GALILEO-PFM)",
        "group": "galileo",
        "lat": 22.027019805569452,
        "lon": 151.20601774257665,
        "alt_km": 23228.82337597905,
        "timestamp": "2025-12-27T05:29:39.465871+00:00",
        "meta_object_name": "GSAT0101 (GALILEO-PFM)",
        "meta_object_id": "2011-060A",
        "meta_epoch": "2025-12-24T15:10:54.850656",
        "meta_mean_motion": 1.70475643,
        "meta_eccentricity": 0.00032614,
        "meta_inclination": 57.05,
        "meta_ra_of_asc_node": 346.4975,
        "meta_arg_of_pericenter": 321.0017,
        "meta_mean_anomaly": 38.9828,
        "meta_ephemeris_type": 0,
        "meta_classification_type": "U",
        "meta_norad_cat_id": 37846,
        "meta_element_set_no": 999,
        "meta_rev_at_epoch": 8814,
        "meta_bstar": 0,
        "meta_mean_motion_dot": -6.1e-07,
        "meta_mean_motion_ddot": 0,
        "tle_line1": "1 37846U 11060A   25358.63257929 -.00000061  00000+0  00000+0 0  9998",
        "tle_line2": "2 37846  57.0500 346.4975 0003261 321.0017  38.9828  1.70475643 88147"
      },
      "geometry": {
        "type": "Point",
        "coordinates": [
          151.20601774257665,
          22.027019805569452
        ]
      }
    },
    {
      "type": "Feature",
      "properties": {
        "norad_id": 37847,
        "name": "GSAT0102 (GALILEO-FM2)",
        "group": "galileo",
        "lat": -15.755544545359244,
        "lon": 176.96024310101254,
        "alt_km": 23230.495968470528,
        "timestamp": "2025-12-27T05:29:39.465893+00:00",
        "meta_object_name": "GSAT0102 (GALILEO-FM2)",
        "meta_object_id": "2011-060B",
        "meta_epoch": "2025-12-22T11:58:40.586304",
        "meta_mean_motion": 1.70475957,
        "meta_eccentricity": 0.00051595,
        "meta_inclination": 57.0512,
        "meta_ra_of_asc_node": 346.5558,
        "meta_arg_of_pericenter": 313.0615,
        "meta_mean_anomaly": 223.0229,
        "meta_ephemeris_type": 0,
        "meta_classification_type": "U",
        "meta_norad_cat_id": 37847,
        "meta_element_set_no": 999,
        "meta_rev_at_epoch": 8811,
        "meta_bstar": 0,
        "meta_mean_motion_dot": -6.5e-07,
        "meta_mean_motion_ddot": 0,
        "tle_line1": "1 37847U 11060B   25356.49908086 -.00000065  00000+0  00000+0 0  9992",
        "tle_line2": "2 37847  57.0512 346.5558 0005159 313.0615 223.0229  1.70475957 88119"
      },
      "geometry": {
        "type": "Point",
        "coordinates": [
          176.96024310101254,
          -15.755544545359244
        ]
      }
    },
    {
      "type": "Feature",
      "properties": {
        "norad_id": 38857,
        "name": "GSAT0103 (GALILEO-FM3)",
        "group": "galileo",
        "lat": 40.12695545617566,
        "lon": -108.80147727472945,
        "alt_km": 23224.308703205228,
        "timestamp": "2025-12-27T05:29:39.465908+00:00",
        "meta_object_name": "GSAT0103 (GALILEO-FM3)",
        "meta_object_id": "2012-055A",
        "meta_epoch": "2025-12-22T21:54:43.252704",
        "meta_mean_motion": 1.70473351,
        "meta_eccentricity": 0.0002995,
        "meta_inclination": 55.698,
        "meta_ra_of_asc_node": 106.3873,
        "meta_arg_of_pericenter": 269.858,
        "meta_mean_anomaly": 90.0891,
        "meta_ephemeris_type": 0,
        "meta_classification_type": "U",
        "meta_norad_cat_id": 38857,
        "meta_element_set_no": 999,
        "meta_rev_at_epoch": 8200,
        "meta_bstar": 0,
        "meta_mean_motion_dot": 1e-07,
        "meta_mean_motion_ddot": 0,
        "tle_line1": "1 38857U 12055A   25356.91300061  .00000010  00000+0  00000+0 0  9994",
        "tle_line2": "2 38857  55.6980 106.3873 0002995 269.8580  90.0891  1.70473351 82005"
      },
      "geometry": {
        "type": "Point",
        "coordinates": [
          -108.80147727472945,
          40.12695545617566
        ]
      }
    },
    {
      "type": "Feature",
      "properties": {
        "norad_id": 40128,
        "name": "GSAT0201 (GALILEO 5)",
        "group": "galileo",
        "lat": -17.498076204889692,
        "lon": 116.32739566632338,
        "alt_km": 17451.008995687316,
        "timestamp": "2025-12-27T05:29:39.465920+00:00",
        "meta_object_name": "GSAT0201 (GALILEO 5)",
        "meta_object_id": "2014-050A",
        "meta_epoch": "2025-12-25T20:43:24.583008",
        "meta_mean_motion": 1.85519608,
        "meta_eccentricity": 0.16491868,
        "meta_inclination": 49.0615,
        "meta_ra_of_asc_node": 280.5285,
        "meta_arg_of_pericenter": 172.7701,
        "meta_mean_anomaly": 189.9925,
        "meta_ephemeris_type": 0,
        "meta_classification_type": "U",
        "meta_norad_cat_id": 40128,
        "meta_element_set_no": 999,
        "meta_rev_at_epoch": 7510,
        "meta_bstar": 0,
        "meta_mean_motion_dot": -4.2e-07,
        "meta_mean_motion_ddot": 0,
        "tle_line1": "1 40128U 14050A   25359.86347897 -.00000042  00000+0  00000+0 0  9996",
        "tle_line2": "2 40128  49.0615 280.5285 1649186 172.7701 189.9925  1.85519608 75101"
      },
      "geometry": {
        "type": "Point",
        "coordinates": [
          116.32739566632338,
          -17.498076204889692
        ]
      }
    },
    {
      "type": "Feature",
      "properties": {
        "norad_id": 40129,
        "name": "GSAT0202 (GALILEO 6)",
        "group": "galileo",
        "lat": 11.561561165049115,
        "lon": -70.23964750951916,
        "alt_km": 25763.71560965664,
        "timestamp": "2025-12-27T05:29:39.465932+00:00",
        "meta_object_name": "GSAT0202 (GALILEO 6)",
        "meta_object_id": "2014-050B",
        "meta_epoch": "2025-12-26T02:52:20.313984",
        "meta_mean_motion": 1.85520261,
        "meta_eccentricity": 0.1649751,
        "meta_inclination": 49.0773,
        "meta_ra_of_asc_node": 279.6017,
        "meta_arg_of_pericenter": 173.5155,
        "meta_mean_anomaly": 188.9707,
        "meta_ephemeris_type": 0,
        "meta_classification_type": "U",
        "meta_norad_cat_id": 40129,
        "meta_element_set_no": 999,
        "meta_rev_at_epoch": 7727,
        "meta_bstar": 0,
        "meta_mean_motion_dot": -4.2e-07,
        "meta_mean_motion_ddot": 0,
        "tle_line1": "1 40129U 14050B   25360.11967956 -.00000042  00000+0  00000+0 0  9991",
        "tle_line2": "2 40129  49.0773 279.6017 1649751 173.5155 188.9707  1.85520261 77273"
      },
      "geometry": {
        "type": "Point",
        "coordinates": [
          -70.23964750951916,
          11.561561165049115
        ]
      }
    },
    {
      "type": "Feature",
      "properties": {
        "norad_id": 40544,
        "name": "GSAT0203 (GALILEO 7)",
        "group": "galileo",
        "lat": -52.050454210123604,
        "lon": -70.67140745665503,
        "alt_km": 23209.15243294345,
        "timestamp": "2025-12-27T05:29:39.465944+00:00",
        "meta_object_name": "GSAT0203 (GALILEO 7)",
        "meta_object_id": "2015-017A",
        "meta_epoch": "2025-12-24T23:56:01.378752",
        "meta_mean_motion": 1.70475851,
        "meta_eccentricity": 0.000645,
        "meta_inclination": 56.8433,
        "meta_ra_of_asc_node": 346.3459,
        "meta_arg_of_pericenter": 275.4973,
        "meta_mean_anomaly": 84.4372,
        "meta_ephemeris_type": 0,
        "meta_classification_type": "U",
        "meta_norad_cat_id": 40544,
        "meta_element_set_no": 999,
        "meta_rev_at_epoch": 6623,
        "meta_bstar": 0,
        "meta_mean_motion_dot": -6.1e-07,
        "meta_mean_motion_ddot": 0,
        "tle_line1": "1 40544U 15017A   25358.99723818 -.00000061  00000+0  00000+0 0  9997",
        "tle_line2": "2 40544  56.8433 346.3459 0006450 275.4973  84.4372  1.70475851 66237"
      },
      "geometry": {
        "type": "Point",
        "coordinates": [
          -70.67140745665503,
          -52.050454210123604
        ]
      }
    },
    {
      "type": "Feature",
      "properties": {
        "norad_id": 40545,
        "name": "GSAT0204 (GALILEO 8)",
        "group": "galileo",
        "lat": 37.92826604633888,
        "lon": 135.68074501929902,
        "alt_km": 23230.031286498324,
        "timestamp": "2025-12-27T05:29:39.465955+00:00",
        "meta_object_name": "GSAT0204 (GALILEO 8)",
        "meta_object_id": "2015-017B",
        "meta_epoch": "2025-12-20T13:26:28.826304",
        "meta_mean_motion": 1.70475697,
        "meta_eccentricity": 0.0006133,
        "meta_inclination": 56.8522,
        "meta_ra_of_asc_node": 346.4847,
        "meta_arg_of_pericenter": 266.5447,
        "meta_mean_anomaly": 93.3948,
        "meta_ephemeris_type": 0,
        "meta_classification_type": "U",
        "meta_norad_cat_id": 40545,
        "meta_element_set_no": 999,
        "meta_rev_at_epoch": 2920,
        "meta_bstar": 0,
        "meta_mean_motion_dot": -7e-07,
        "meta_mean_motion_ddot": 0,
        "tle_line1": "1 40545U 15017B   25354.56005586 -.00000070  00000+0  00000+0 0  9992",
        "tle_line2": "2 40545  56.8522 346.4847 0006133 266.5447  93.3948  1.70475697 29206"
      },
      "geometry": {
        "type": "Point",
        "coordinates": [
          135.68074501929902,
          37.92826604633888
        ]
      }
    }
  ]
}